*******************************************************************************
Ephemeris / WWW_USER Mon Mar 24 07:53:55 2025 Pasadena, USA      / Horizons    
*******************************************************************************
Target body name: (2018 SL3)                      {source: JPL#9}
Center body name: Earth (399)                     {source: DE441}
Center-site name: Mauna Kea
*******************************************************************************
Start time      : A.D. 2018-Dec-24 03:59:00.0000 UT      
Stop  time      : A.D. 2018-Dec-24 16:43:00.0000 UT      
Step-size       : 1 minutes
*******************************************************************************
Target pole/equ : undefined
Target radii    : undefined                                                    
Center geodetic : 204.5278, 19.8260847, 4.21024   {E-lon(deg),Lat(deg),Alt(km)}
Center cylindric: 204.5278, 6006.35451, 2151.0229 {E-lon(deg),Dxy(km),Dz(km)}
Center pole/equ : ITRF93                          {East-longitude positive}
Center radii    : 6378.137, 6378.137, 6356.752 km {Equator_a, b, pole_c}       
Target primary  : Sun
Vis. interferer : MOON (R_eq= 1737.400) km        {source: DE441}
Rel. light bend : Sun                             {source: DE441}
Rel. lght bnd GM: 1.3271E+11 km^3/s^2                                          
Small-body perts: Yes                             {source: SB441-N16}
Atmos refraction: NO (AIRLESS)
RA format       : HMS
Time format     : CAL 
Calendar mode   : Mixed Julian/Gregorian
RTS-only print  : NO       
EOP file        : eop.250321.p250617                                           
EOP coverage    : DATA-BASED 1962-JAN-20 TO 2025-MAR-21. PREDICTS-> 2025-JUN-16
Units conversion: 1 au= 149597870.700 km, c= 299792.458 km/s, 1 day= 86400.0 s 
Table cut-offs 1: Elevation (-90.0deg=NO ),Airmass (>38.000=NO), Daylight (YES)
Table cut-offs 2: Solar elongation (  0.0,180.0=NO ),Local Hour Angle( 0.0=NO )
Table cut-offs 3: RA/DEC angular rate (     0.0=NO )                           
*******************************************************************************
Initial IAU76/J2000 heliocentric ecliptic osculating elements (au, days, deg.):
  EPOCH=  2458395.5 ! 2018-Oct-04.00 (TDB)         Residual RMS= .22865        
   EC= .523832704749462    QR= .7523817427125933   TP= 2458455.4342692108      
   OM= 5.37828463666876    W=  89.37669799750542   IN= 4.07069530013935        
  Equivalent ICRF heliocentric cartesian coordinates (au, au/d):
   X= 1.077301312774806E+00  Y= 1.718701187822678E-01  Z= 8.135917115484240E-02
  VX=-1.117713770282307E-02 VY= 1.338322199759621E-02 VZ= 7.048365308861806E-03
Asteroid physical parameters (km, seconds, rotational period in hours):        
   GM= n.a.                RAD= n.a.               ROTPER= n.a.                
   H= 24.5                 G= .150                 B-V= n.a.                   
                           ALBEDO= n.a.            STYP= n.a.                  
*******************************************************************************
 Date__(UT)__HR:MN     R.A._________(ICRF)_________DEC
******************************************************
$$SOE
 2018-Dec-24 03:59 C   14 24 05.575750 -10 00 33.19746
 2018-Dec-24 04:00 C   14 24 05.671947 -10 00 33.96646
 2018-Dec-24 04:01 C   14 24 05.768154 -10 00 34.73549
 2018-Dec-24 04:02 C   14 24 05.864372 -10 00 35.50454
 2018-Dec-24 04:03 C   14 24 05.960601 -10 00 36.27362
 2018-Dec-24 04:04 C   14 24 06.056840 -10 00 37.04274
 2018-Dec-24 04:05 C   14 24 06.153090 -10 00 37.81188
 2018-Dec-24 04:06 C   14 24 06.249350 -10 00 38.58105
 2018-Dec-24 04:07 C   14 24 06.345621 -10 00 39.35025
 2018-Dec-24 04:08 C   14 24 06.441902 -10 00 40.11948
 2018-Dec-24 04:09 C   14 24 06.538194 -10 00 40.88874
 2018-Dec-24 04:10 C   14 24 06.634496 -10 00 41.65803
 2018-Dec-24 04:11 C   14 24 06.730808 -10 00 42.42735
 2018-Dec-24 04:12 C   14 24 06.827130 -10 00 43.19670
 2018-Dec-24 04:13 C   14 24 06.923462 -10 00 43.96607
 2018-Dec-24 04:14 N   14 24 07.019804 -10 00 44.73548
 2018-Dec-24 04:15 N   14 24 07.116156 -10 00 45.50492
 2018-Dec-24 04:16 N   14 24 07.212518 -10 00 46.27439
 2018-Dec-24 04:17 N   14 24 07.308890 -10 00 47.04389
 2018-Dec-24 04:18 N   14 24 07.405271 -10 00 47.81342
 2018-Dec-24 04:19 N   14 24 07.501663 -10 00 48.58299
 2018-Dec-24 04:20 N   14 24 07.598064 -10 00 49.35258
 2018-Dec-24 04:21 N   14 24 07.694474 -10 00 50.12220
 2018-Dec-24 04:22 N   14 24 07.790894 -10 00 50.89186
 2018-Dec-24 04:23 N   14 24 07.887324 -10 00 51.66154
 2018-Dec-24 04:24 N   14 24 07.983763 -10 00 52.43126
 2018-Dec-24 04:25 N   14 24 08.080211 -10 00 53.20101
 2018-Dec-24 04:26 N   14 24 08.176669 -10 00 53.97079
 2018-Dec-24 04:27 N   14 24 08.273135 -10 00 54.74060
 2018-Dec-24 04:28 N   14 24 08.369611 -10 00 55.51044
 2018-Dec-24 04:29 N   14 24 08.466097 -10 00 56.28032
 2018-Dec-24 04:30 N   14 24 08.562591 -10 00 57.05022
 2018-Dec-24 04:31 N   14 24 08.659094 -10 00 57.82016
 2018-Dec-24 04:32 N   14 24 08.755606 -10 00 58.59013
 2018-Dec-24 04:33 N   14 24 08.852127 -10 00 59.36014
 2018-Dec-24 04:34 N   14 24 08.948656 -10 01 00.13017
 2018-Dec-24 04:35 N   14 24 09.045195 -10 01 00.90024
 2018-Dec-24 04:36 N   14 24 09.141742 -10 01 01.67034
 2018-Dec-24 04:37 N   14 24 09.238298 -10 01 02.44047
 2018-Dec-24 04:38 N   14 24 09.334862 -10 01 03.21064
 2018-Dec-24 04:39 N   14 24 09.431434 -10 01 03.98083
 2018-Dec-24 04:40 N   14 24 09.528016 -10 01 04.75106
 2018-Dec-24 04:41 A   14 24 09.624605 -10 01 05.52133
 2018-Dec-24 04:42 A   14 24 09.721203 -10 01 06.29162
 2018-Dec-24 04:43 A   14 24 09.817809 -10 01 07.06195
 2018-Dec-24 04:44 A   14 24 09.914423 -10 01 07.83232
 2018-Dec-24 04:45 A   14 24 10.011045 -10 01 08.60271
 2018-Dec-24 04:46 A   14 24 10.107675 -10 01 09.37314
 2018-Dec-24 04:47 A   14 24 10.204314 -10 01 10.14360
 2018-Dec-24 04:48 A   14 24 10.300960 -10 01 10.91410
 2018-Dec-24 04:49 A   14 24 10.397614 -10 01 11.68463
 2018-Dec-24 04:50 A   14 24 10.494275 -10 01 12.45519
 2018-Dec-24 04:51 A   14 24 10.590945 -10 01 13.22579
 2018-Dec-24 04:52 A   14 24 10.687622 -10 01 13.99642
 2018-Dec-24 04:53 A   14 24 10.784306 -10 01 14.76709
 2018-Dec-24 04:54 A   14 24 10.880999 -10 01 15.53779
 2018-Dec-24 04:55 A   14 24 10.977698 -10 01 16.30852
 2018-Dec-24 04:56 A   14 24 11.074405 -10 01 17.07929
 2018-Dec-24 04:57 A   14 24 11.171119 -10 01 17.85009
 2018-Dec-24 04:58 A   14 24 11.267841 -10 01 18.62093
 2018-Dec-24 04:59 A   14 24 11.364570 -10 01 19.39180
 2018-Dec-24 05:00 A   14 24 11.461305 -10 01 20.16270
 2018-Dec-24 05:01 A   14 24 11.558048 -10 01 20.93364
 2018-Dec-24 05:02 A   14 24 11.654798 -10 01 21.70462
 2018-Dec-24 05:03 A   14 24 11.751555 -10 01 22.47563
 2018-Dec-24 05:04 A   14 24 11.848318 -10 01 23.24667
 2018-Dec-24 05:05 A   14 24 11.945089 -10 01 24.01775
 2018-Dec-24 05:06 A   14 24 12.041866 -10 01 24.78887
 2018-Dec-24 05:07 A   14 24 12.138649 -10 01 25.56002
 2018-Dec-24 05:08  m  14 24 12.235440 -10 01 26.33120
 2018-Dec-24 05:09  m  14 24 12.332236 -10 01 27.10242
 2018-Dec-24 05:10  m  14 24 12.429040 -10 01 27.87367
 2018-Dec-24 05:11  m  14 24 12.525849 -10 01 28.64496
 2018-Dec-24 05:12  m  14 24 12.622665 -10 01 29.41629
 2018-Dec-24 05:13  m  14 24 12.719487 -10 01 30.18765
 2018-Dec-24 05:14  m  14 24 12.816316 -10 01 30.95905
 2018-Dec-24 05:15  m  14 24 12.913150 -10 01 31.73048
 2018-Dec-24 05:16  m  14 24 13.009991 -10 01 32.50195
 2018-Dec-24 05:17  m  14 24 13.106837 -10 01 33.27345
 2018-Dec-24 05:18  m  14 24 13.203689 -10 01 34.04499
 2018-Dec-24 05:19  m  14 24 13.300547 -10 01 34.81657
 2018-Dec-24 05:20  m  14 24 13.397411 -10 01 35.58818
 2018-Dec-24 05:21  m  14 24 13.494281 -10 01 36.35982
 2018-Dec-24 05:22  m  14 24 13.591156 -10 01 37.13151
 2018-Dec-24 05:23  m  14 24 13.688037 -10 01 37.90323
 2018-Dec-24 05:24  m  14 24 13.784923 -10 01 38.67498
 2018-Dec-24 05:25  m  14 24 13.881815 -10 01 39.44677
 2018-Dec-24 05:26  m  14 24 13.978712 -10 01 40.21860
 2018-Dec-24 05:27  m  14 24 14.075614 -10 01 40.99047
 2018-Dec-24 05:28  m  14 24 14.172521 -10 01 41.76237
 2018-Dec-24 05:29  m  14 24 14.269434 -10 01 42.53430
 2018-Dec-24 05:30  m  14 24 14.366352 -10 01 43.30628
 2018-Dec-24 05:31  m  14 24 14.463274 -10 01 44.07829
 2018-Dec-24 05:32  m  14 24 14.560202 -10 01 44.85033
 2018-Dec-24 05:33  m  14 24 14.657134 -10 01 45.62242
 2018-Dec-24 05:34  m  14 24 14.754072 -10 01 46.39454
 2018-Dec-24 05:35  m  14 24 14.851013 -10 01 47.16670
 2018-Dec-24 05:36  m  14 24 14.947960 -10 01 47.93889
 2018-Dec-24 05:37  m  14 24 15.044911 -10 01 48.71112
 2018-Dec-24 05:38  m  14 24 15.141867 -10 01 49.48339
 2018-Dec-24 05:39  m  14 24 15.238827 -10 01 50.25569
 2018-Dec-24 05:40  m  14 24 15.335791 -10 01 51.02804
 2018-Dec-24 05:41  m  14 24 15.432760 -10 01 51.80041
 2018-Dec-24 05:42  m  14 24 15.529733 -10 01 52.57283
 2018-Dec-24 05:43  m  14 24 15.626710 -10 01 53.34528
 2018-Dec-24 05:44  m  14 24 15.723692 -10 01 54.11777
 2018-Dec-24 05:45  m  14 24 15.820677 -10 01 54.89030
 2018-Dec-24 05:46  m  14 24 15.917666 -10 01 55.66287
 2018-Dec-24 05:47  m  14 24 16.014659 -10 01 56.43547
 2018-Dec-24 05:48  m  14 24 16.111656 -10 01 57.20811
 2018-Dec-24 05:49  m  14 24 16.208656 -10 01 57.98078
 2018-Dec-24 05:50  m  14 24 16.305660 -10 01 58.75350
 2018-Dec-24 05:51  m  14 24 16.402668 -10 01 59.52625
 2018-Dec-24 05:52  m  14 24 16.499680 -10 02 00.29904
 2018-Dec-24 05:53  m  14 24 16.596694 -10 02 01.07187
 2018-Dec-24 05:54  m  14 24 16.693712 -10 02 01.84473
 2018-Dec-24 05:55  m  14 24 16.790734 -10 02 02.61763
 2018-Dec-24 05:56  m  14 24 16.887758 -10 02 03.39057
 2018-Dec-24 05:57  m  14 24 16.984786 -10 02 04.16355
 2018-Dec-24 05:58  m  14 24 17.081817 -10 02 04.93657
 2018-Dec-24 05:59  m  14 24 17.178851 -10 02 05.70962
 2018-Dec-24 06:00  m  14 24 17.275888 -10 02 06.48271
 2018-Dec-24 06:01  m  14 24 17.372927 -10 02 07.25584
